ONEWEB-0255             
1 48973U 21060G   25332.10822544  .00000107  00000+0  24742-3 0  9990
2 48973  87.9025 268.8255 0002058  74.3158 285.8200 13.16594101213207
ONEWEB-0256             
1 48974U 21060H   25332.13434986  .00000129  00000+0  30308-3 0  9992
2 48974  87.9026 268.8296 0001793  80.6449 279.4884 13.16593744213177
ONEWEB-0257             
1 48975U 21060J   25332.09080650 -.00000006  00000+0 -49085-4 0  9992
2 48975  87.9035 268.8150 0002026  78.3067 281.8291 13.16594035213125
ONEWEB-0258             
1 48976U 21060K   25332.09239251 -.00000001  00000+0 -35702-4 0  9992
2 48976  87.9026 268.8309 0001819  74.2607 285.8724 13.16593749213133
ONEWEB-0259             
1 48977U 21060L   25332.08605676 -.00000056  00000+0 -18033-3 0  9997
2 48977  87.9038 268.8251 0002018  75.1990 284.9365 13.16594198213163
ONEWEB-0260             
1 48978U 21060M   25331.84935847 -.00000050  00000+0 -16398-3 0  9993
2 48978  87.9025 268.8880 0001861  90.2224 269.9120 13.16593092213110
ONEWEB-0261             
1 48979U 21060N   25332.12325946  .00000001  00000+0 -30788-4 0  9994
2 48979  87.9024 268.8350 0002260  79.6854 280.4531 13.16596665213209
ONEWEB-0262             
1 48980U 21060P   25332.10347451 -.00000014  00000+0 -69407-4 0  9994
2 48980  87.9030 268.8108 0002004  69.1063 291.0282 13.16593796213169
ONEWEB-0263             
1 48981U 21060Q   25332.05914419  .00000188  00000+0  45869-3 0  9998
2 48981  87.9030 268.8352 0002277  76.3959 283.7425 13.16594913213122
ONEWEB-0264             
1 48982U 21060R   25332.09634980  .00000006  00000+0 -17949-4 0  9994
2 48982  87.9023 268.8316 0002007  82.7322 277.4037 13.16596292213133
ONEWEB-0266             
1 48984U 21060T   25331.81374090  .00000096  00000+0  21877-3 0  9990
2 48984  87.9033 268.8728 0001793  70.8187 289.3138 13.16593717213088
ONEWEB-0267             
1 48985U 21060U   25332.12880938  .00000131  00000+0  30939-3 0  9998
2 48985  87.9033 268.8096 0002093  79.6408 280.4958 13.16596347213134
ONEWEB-0268             
1 48986U 21060V   25332.09714473  .00000021  00000+0  22404-4 0  9992
2 48986  87.9032 268.8237 0001896  79.1946 280.9398 13.16594504213397
ONEWEB-0269             
1 48987U 21060W   25331.85015593 -.00000048  00000+0 -15790-3 0  9993
2 48987  87.9025 268.8965 0001716  81.6377 278.4949 13.16595217213133
ONEWEB-0270             
1 48988U 21060X   25332.09556451  .00000057  00000+0  11457-3 0  9998
2 48988  87.9034 268.8258 0002243  71.7291 288.4084 13.16595177213204
ONEWEB-0271             
1 48989U 21060Y   25332.08289823  .00000039  00000+0  67148-4 0  9993
2 48989  87.9041 268.8166 0002111  78.0573 282.0794 13.16593525213201
ONEWEB-0272             
1 48990U 21060Z   25332.10505767  .00000070  00000+0  14935-3 0  9996
2 48990  87.9021 268.8296 0002061  81.9076 278.2289 13.16593948213159
