[{"OBJECT_NAME":"ONEWEB-0255","OBJECT_ID":"2021-060G","EPOCH":"2025-11-28T02:35:50.678016","MEAN_MOTION":13.16594101,"ECCENTRICITY":0.0002058,"INCLINATION":87.9025,"RA_OF_ASC_NODE":268.8255,"ARG_OF_PERICENTER":74.3158,"MEAN_ANOMALY":285.82,"EPHEMERIS_TYPE":0,"CLASSIFICATION_TYPE":"U","NORAD_CAT_ID":48973,"ELEMENT_SET_NO":999,"REV_AT_EPOCH":21320,"BSTAR":0.00024742,"MEAN_MOTION_DOT":1.07e-6,"MEAN_MOTION_DDOT":0},{"OBJECT_NAME":"ONEWEB-0256","OBJECT_ID":"2021-060H","EPOCH":"2025-11-28T03:13:27.827904","MEAN_MOTION":13.16593744,"ECCENTRICITY":0.0001793,"INCLINATION":87.9026,"RA_OF_ASC_NODE":268.8296,"ARG_OF_PERICENTER":80.6449,"MEAN_ANOMALY":279.4884,"EPHEMERIS_TYPE":0,"CLASSIFICATION_TYPE":"U","NORAD_CAT_ID":48974,"ELEMENT_SET_NO":999,"REV_AT_EPOCH":21317,"BSTAR":0.00030308,"MEAN_MOTION_DOT":1.29e-6,"MEAN_MOTION_DDOT":0},{"OBJECT_NAME":"ONEWEB-0257","OBJECT_ID":"2021-060J","EPOCH":"2025-11-28T02:10:45.681600","MEAN_MOTION":13.16594035,"ECCENTRICITY":0.0002026,"INCLINATION":87.9035,"RA_OF_ASC_NODE":268.815,"ARG_OF_PERICENTER":78.3067,"MEAN_ANOMALY":281.8291,"EPHEMERIS_TYPE":0,"CLASSIFICATION_TYPE":"U","NORAD_CAT_ID":48975,"ELEMENT_SET_NO":999,"REV_AT_EPOCH":21312,"BSTAR":-4.9085e-5,"MEAN_MOTION_DOT":-6.0e-8,"MEAN_MOTION_DDOT":0},{"OBJECT_NAME":"ONEWEB-0258","OBJECT_ID":"2021-060K","EPOCH":"2025-11-28T02:13:02.712864","MEAN_MOTION":13.16593749,"ECCENTRICITY":0.0001819,"INCLINATION":87.9026,"RA_OF_ASC_NODE":268.8309,"ARG_OF_PERICENTER":74.2607,"MEAN_ANOMALY":285.8724,"EPHEMERIS_TYPE":0,"CLASSIFICATION_TYPE":"U","NORAD_CAT_ID":48976,"ELEMENT_SET_NO":999,"REV_AT_EPOCH":21313,"BSTAR":-3.5702e-5,"MEAN_MOTION_DOT":-1.0e-8,"MEAN_MOTION_DDOT":0},{"OBJECT_NAME":"ONEWEB-0259","OBJECT_ID":"2021-060L","EPOCH":"2025-11-28T02:03:55.304064","MEAN_MOTION":13.16594198,"ECCENTRICITY":0.0002018,"INCLINATION":87.9038,"RA_OF_ASC_NODE":268.8251,"ARG_OF_PERICENTER":75.199,"MEAN_ANOMALY":284.9365,"EPHEMERIS_TYPE":0,"CLASSIFICATION_TYPE":"U","NORAD_CAT_ID":48977,"ELEMENT_SET_NO":999,"REV_AT_EPOCH":21316,"BSTAR":-0.00018033,"MEAN_MOTION_DOT":-5.6e-7,"MEAN_MOTION_DDOT":0},{"OBJECT_NAME":"ONEWEB-0260","OBJECT_ID":"2021-060M","EPOCH":"2025-11-27T20:23:04.571808","MEAN_MOTION":13.16593092,"ECCENTRICITY":0.0001861,"INCLINATION":87.9025,"RA_OF_ASC_NODE":268.888,"ARG_OF_PERICENTER":90.2224,"MEAN_ANOMALY":269.912,"EPHEMERIS_TYPE":0,"CLASSIFICATION_TYPE":"U","NORAD_CAT_ID":48978,"ELEMENT_SET_NO":999,"REV_AT_EPOCH":21311,"BSTAR":-0.00016398,"MEAN_MOTION_DOT":-5.0e-7,"MEAN_MOTION_DDOT":0},{"OBJECT_NAME":"ONEWEB-0261","OBJECT_ID":"2021-060N","EPOCH":"2025-11-28T02:57:29.617344","MEAN_MOTION":13.16596665,"ECCENTRICITY":0.000226,"INCLINATION":87.9024,"RA_OF_ASC_NODE":268.835,"ARG_OF_PERICENTER":79.6854,"MEAN_ANOMALY":280.4531,"EPHEMERIS_TYPE":0,"CLASSIFICATION_TYPE":"U","NORAD_CAT_ID":48979,"ELEMENT_SET_NO":999,"REV_AT_EPOCH":21320,"BSTAR":-3.0788e-5,"MEAN_MOTION_DOT":1.0e-8,"MEAN_MOTION_DDOT":0},{"OBJECT_NAME":"ONEWEB-0262","OBJECT_ID":"2021-060P","EPOCH":"2025-11-28T02:29:00.197664","MEAN_MOTION":13.16593796,"ECCENTRICITY":0.0002004,"INCLINATION":87.903,"RA_OF_ASC_NODE":268.8108,"ARG_OF_PERICENTER":69.1063,"MEAN_ANOMALY":291.0282,"EPHEMERIS_TYPE":0,"CLASSIFICATION_TYPE":"U","NORAD_CAT_ID":48980,"ELEMENT_SET_NO":999,"REV_AT_EPOCH":21316,"BSTAR":-6.9407e-5,"MEAN_MOTION_DOT":-1.4e-7,"MEAN_MOTION_DDOT":0},{"OBJECT_NAME":"ONEWEB-0263","OBJECT_ID":"2021-060Q","EPOCH":"2025-11-28T01:25:10.058016","MEAN_MOTION":13.16594913,"ECCENTRICITY":0.0002277,"INCLINATION":87.903,"RA_OF_ASC_NODE":268.8352,"ARG_OF_PERICENTER":76.3959,"MEAN_ANOMALY":283.7425,"EPHEMERIS_TYPE":0,"CLASSIFICATION_TYPE":"U","NORAD_CAT_ID":48981,"ELEMENT_SET_NO":999,"REV_AT_EPOCH":21312,"BSTAR":0.00045869,"MEAN_MOTION_DOT":1.88e-6,"MEAN_MOTION_DDOT":0},{"OBJECT_NAME":"ONEWEB-0264","OBJECT_ID":"2021-060R","EPOCH":"2025-11-28T02:18:44.622720","MEAN_MOTION":13.16596292,"ECCENTRICITY":0.0002007,"INCLINATION":87.9023,"RA_OF_ASC_NODE":268.8316,"ARG_OF_PERICENTER":82.7322,"MEAN_ANOMALY":277.4037,"EPHEMERIS_TYPE":0,"CLASSIFICATION_TYPE":"U","NORAD_CAT_ID":48982,"ELEMENT_SET_NO":999,"REV_AT_EPOCH":21313,"BSTAR":-1.7949e-5,"MEAN_MOTION_DOT":6.0e-8,"MEAN_MOTION_DDOT":0},{"OBJECT_NAME":"ONEWEB-0266","OBJECT_ID":"2021-060T","EPOCH":"2025-11-27T19:31:47.213760","MEAN_MOTION":13.16593717,"ECCENTRICITY":0.0001793,"INCLINATION":87.9033,"RA_OF_ASC_NODE":268.8728,"ARG_OF_PERICENTER":70.8187,"MEAN_ANOMALY":289.3138,"EPHEMERIS_TYPE":0,"CLASSIFICATION_TYPE":"U","NORAD_CAT_ID":48984,"ELEMENT_SET_NO":999,"REV_AT_EPOCH":21308,"BSTAR":0.00021876879,"MEAN_MOTION_DOT":9.6e-7,"MEAN_MOTION_DDOT":0},{"OBJECT_NAME":"ONEWEB-0267","OBJECT_ID":"2021-060U","EPOCH":"2025-11-28T03:05:29.130432","MEAN_MOTION":13.16596347,"ECCENTRICITY":0.0002093,"INCLINATION":87.9033,"RA_OF_ASC_NODE":268.8096,"ARG_OF_PERICENTER":79.6408,"MEAN_ANOMALY":280.4958,"EPHEMERIS_TYPE":0,"CLASSIFICATION_TYPE":"U","NORAD_CAT_ID":48985,"ELEMENT_SET_NO":999,"REV_AT_EPOCH":21313,"BSTAR":0.00030939,"MEAN_MOTION_DOT":1.31e-6,"MEAN_MOTION_DDOT":0},{"OBJECT_NAME":"ONEWEB-0268","OBJECT_ID":"2021-060V","EPOCH":"2025-11-28T02:19:53.304672","MEAN_MOTION":13.16594504,"ECCENTRICITY":0.0001896,"INCLINATION":87.9032,"RA_OF_ASC_NODE":268.8237,"ARG_OF_PERICENTER":79.1946,"MEAN_ANOMALY":280.9398,"EPHEMERIS_TYPE":0,"CLASSIFICATION_TYPE":"U","NORAD_CAT_ID":48986,"ELEMENT_SET_NO":999,"REV_AT_EPOCH":21339,"BSTAR":2.2404e-5,"MEAN_MOTION_DOT":2.1e-7,"MEAN_MOTION_DDOT":0},{"OBJECT_NAME":"ONEWEB-0269","OBJECT_ID":"2021-060W","EPOCH":"2025-11-27T20:24:13.472352","MEAN_MOTION":13.16595217,"ECCENTRICITY":0.0001716,"INCLINATION":87.9025,"RA_OF_ASC_NODE":268.8965,"ARG_OF_PERICENTER":81.6377,"MEAN_ANOMALY":278.4949,"EPHEMERIS_TYPE":0,"CLASSIFICATION_TYPE":"U","NORAD_CAT_ID":48987,"ELEMENT_SET_NO":999,"REV_AT_EPOCH":21313,"BSTAR":-0.0001579,"MEAN_MOTION_DOT":-4.8e-7,"MEAN_MOTION_DDOT":0},{"OBJECT_NAME":"ONEWEB-0270","OBJECT_ID":"2021-060X","EPOCH":"2025-11-28T02:17:36.773664","MEAN_MOTION":13.16595177,"ECCENTRICITY":0.0002243,"INCLINATION":87.9034,"RA_OF_ASC_NODE":268.8258,"ARG_OF_PERICENTER":71.7291,"MEAN_ANOMALY":288.4084,"EPHEMERIS_TYPE":0,"CLASSIFICATION_TYPE":"U","NORAD_CAT_ID":48988,"ELEMENT_SET_NO":999,"REV_AT_EPOCH":21320,"BSTAR":0.00011457,"MEAN_MOTION_DOT":5.7e-7,"MEAN_MOTION_DDOT":0},{"OBJECT_NAME":"ONEWEB-0271","OBJECT_ID":"2021-060Y","EPOCH":"2025-11-28T01:59:22.407072","MEAN_MOTION":13.16593525,"ECCENTRICITY":0.0002111,"INCLINATION":87.9041,"RA_OF_ASC_NODE":268.8166,"ARG_OF_PERICENTER":78.0573,"MEAN_ANOMALY":282.0794,"EPHEMERIS_TYPE":0,"CLASSIFICATION_TYPE":"U","NORAD_CAT_ID":48989,"ELEMENT_SET_NO":999,"REV_AT_EPOCH":21320,"BSTAR":6.7148e-5,"MEAN_MOTION_DOT":3.9e-7,"MEAN_MOTION_DDOT":0},{"OBJECT_NAME":"ONEWEB-0272","OBJECT_ID":"2021-060Z","EPOCH":"2025-11-28T02:31:16.982688","MEAN_MOTION":13.16593948,"ECCENTRICITY":0.0002061,"INCLINATION":87.9021,"RA_OF_ASC_NODE":268.8296,"ARG_OF_PERICENTER":81.9076,"MEAN_ANOMALY":278.2289,"EPHEMERIS_TYPE":0,"CLASSIFICATION_TYPE":"U","NORAD_CAT_ID":48990,"ELEMENT_SET_NO":999,"REV_AT_EPOCH":21315,"BSTAR":0.00014935,"MEAN_MOTION_DOT":7.0e-7,"MEAN_MOTION_DDOT":0}]
